{
    "links": {
        "self": "http://www.neowsapp.com/rest/v1/neo/3372217?api_key=iIulBulltgU6a56xZRHN4H3l9WmuAYTsLGpBGhQ2"
    },
    "id": "3372217",
    "neo_reference_id": "3372217",
    "name": "(2007 FT3)",
    "designation": "2007 FT3",
    "nasa_jpl_url": "http://ssd.jpl.nasa.gov/sbdb.cgi?sstr=3372217",
    "absolute_magnitude_h": 20.0,
    "estimated_diameter": {
        "kilometers": {
            "estimated_diameter_min": 0.2658,
            "estimated_diameter_max": 0.5943468684
        },
        "meters": {
            "estimated_diameter_min": 265.8,
            "estimated_diameter_max": 594.3468684194
        },
        "miles": {
            "estimated_diameter_min": 0.1651604118,
            "estimated_diameter_max": 0.369309908
        },
        "feet": {
            "estimated_diameter_min": 872.047272,
            "estimated_diameter_max": 1949.9569797852
        }
    },
    "is_potentially_hazardous_asteroid": true,
    "close_approach_data": [
        {
            "close_approach_date": "2007-03-30",
            "close_approach_date_full": "2007-Mar-30 03:55",
            "epoch_date_close_approach": 1175226900000,
            "relative_velocity": {
                "kilometers_per_second": "19.5528721897",
                "kilometers_per_hour": "70390.3398827612",
                "miles_per_hour": "43737.8198010413"
            },
            "miss_distance": {
                "astronomical": "0.1577743826",
                "lunar": "61.3742348314",
                "kilometers": "23602711.577525062",
                "miles": "14666044.9007353756"
            },
            "orbiting_body": "Earth"
        },
        {
            "close_approach_date": "2068-10-11",
            "close_approach_date_full": "2068-Oct-11 08:01",
            "epoch_date_close_approach": 3117168060000,
            "relative_velocity": {
                "kilometers_per_second": "20.1164464774",
                "kilometers_per_hour": "72419.2073188196",
                "miles_per_hour": "44998.4791254077"
            },
            "miss_distance": {
                "astronomical": "0.1640641052",
                "lunar": "63.8209369228",
                "kilometers": "24543640.681375924",
                "miles": "15250711.1345347912"
            },
            "orbiting_body": "Earth"
        },
        {
            "close_approach_date": "2187-03-31",
            "close_approach_date_full": "2187-Mar-31 14:18",
            "epoch_date_close_approach": 6855632280000,
            "relative_velocity": {
                "kilometers_per_second": "20.0061799659",
                "kilometers_per_hour": "72022.2478772195",
                "miles_per_hour": "44751.823965709"
            },
            "miss_distance": {
                "astronomical": "0.1807568996",
                "lunar": "70.3144339444",
                "kilometers": "27040847.167963852",
                "miles": "16802403.2923790776"
            },
            "orbiting_body": "Earth"
        }
    ],
    "orbital_data": {
        "orbit_id": "7",
        "orbit_determination_date": "2017-04-06 09:06:38",
        "first_observation_date": "2007-03-20",
        "last_observation_date": "2007-03-21",
        "data_arc_in_days": 1,
        "observations_used": 14,
        "orbit_uncertainty": "9",
        "minimum_orbit_intersection": ".0145731",
        "jupiter_tisserand_invariant": "5.397",
        "epoch_osculation": "2454180.5",
        "eccentricity": ".3077514365302609",
        "semi_major_axis": "1.129600011655869",
        "inclination": "26.86573107304766",
        "ascending_node_longitude": "9.892196653008442",
        "orbital_period": "438.5160153392142",
        "perihelion_distance": ".7819639853641759",
        "perihelion_argument": "277.1896528906445",
        "aphelion_distance": "1.477236037947562",
        "perihelion_time": "2454256.088265917683",
        "mean_anomaly": "297.9457653118639",
        "mean_motion": ".8209506321485701",
        "equinox": "J2000",
        "orbit_class": {
            "orbit_class_type": "APO",
            "orbit_class_description": "Near-Earth asteroid orbits which cross the Earth’s orbit similar to that of 1862 Apollo",
            "orbit_class_range": "a (semi-major axis) > 1.0 AU; q (perihelion) < 1.017 AU"
        }
    },
    "is_sentry_object": false
}